start=new Date('2022-08-25T00:00:00.000Z').valueOf();
sats=[{"CLASSIFICATION_TYPE":"U","FILE":"3546663","MEAN_ELEMENT_THEORY":"SGP4","LAUNCH_DATE":"2022-07-07","CENTER_NAME":"EARTH","DECAY_DATE":null,"MEAN_MOTION":"15.73241147","MEAN_MOTION_DOT":"-0.00008354","OBJECT_ID":"2022-076BA","PERIOD":"91.531","TLE_LINE2":"2 53034  53.2161 140.1905 0002376  32.6138 313.6163 15.73241147  1308","ARG_OF_PERICENTER":"32.6138","SITE":"AFETR","ECCENTRICITY":"0.00023760","GP_ID":"210936596","RA_OF_ASC_NODE":"140.1905","MEAN_ANOMALY":"313.6163","REV_AT_EPOCH":"130","OBJECT_NAME":"STARLINK-4151","BSTAR":"-0.00005504100000","OBJECT_TYPE":"PAYLOAD","EPHEMERIS_TYPE":"0","COUNTRY_CODE":"US","APOAPSIS":"351.241","MEAN_MOTION_DDOT":"0.0000000000000","REF_FRAME":"TEME","TIME_SYSTEM":"UTC","NORAD_CAT_ID":"53034","SEMIMAJOR_AXIS":"6727.778","TLE_LINE1":"1 53034U 22076BA  22236.91667824 -.00008354  00000-0 -55041-4 0  9991","EPOCH":"2022-08-24T22:00:00.999936","PERIAPSIS":"348.044","RCS_SIZE":"LARGE","ELEMENT_SET_NO":"999","INCLINATION":"53.2161"},{"FILE":"3546663","CLASSIFICATION_TYPE":"U","DECAY_DATE":null,"CENTER_NAME":"EARTH","MEAN_MOTION_DOT":"-0.00188419","MEAN_MOTION":"15.73234743","LAUNCH_DATE":"2022-07-07","MEAN_ELEMENT_THEORY":"SGP4","OBJECT_ID":"2022-076BB","TLE_LINE2":"2 53035  53.2171 140.1723 0002125  27.3924 320.7548 15.73234743  1304","PERIOD":"91.531","RA_OF_ASC_NODE":"140.1723","MEAN_ANOMALY":"320.7548","ARG_OF_PERICENTER":"27.3924","ECCENTRICITY":"0.00021250","GP_ID":"210936718","SITE":"AFETR","EPHEMERIS_TYPE":"0","OBJECT_TYPE":"PAYLOAD","OBJECT_NAME":"STARLINK-4157","REV_AT_EPOCH":"130","BSTAR":"-0.00136610000000","REF_FRAME":"TEME","COUNTRY_CODE":"US","APOAPSIS":"351.091","MEAN_MOTION_DDOT":"0.0000000000000","NORAD_CAT_ID":"53035","TLE_LINE1":"1 53035U 22076BB  22236.91667824 -.00188419  00000-0 -13661-2 0  9993","SEMIMAJOR_AXIS":"6727.796","TIME_SYSTEM":"UTC","ELEMENT_SET_NO":"999","INCLINATION":"53.2171","PERIAPSIS":"348.231","EPOCH":"2022-08-24T22:00:00.999936","RCS_SIZE":"LARGE"},{"MEAN_ANOMALY":"306.2591","RA_OF_ASC_NODE":"140.1790","GP_ID":"210936864","ECCENTRICITY":"0.00016360","SITE":"AFETR","ARG_OF_PERICENTER":"42.4997","TLE_LINE2":"2 53036  53.2177 140.1790 0001636  42.4997 306.2591 15.73229107  1304","PERIOD":"91.531","OBJECT_ID":"2022-076BC","MEAN_MOTION_DOT":"-0.00001507","MEAN_MOTION":"15.73229107","DECAY_DATE":null,"CENTER_NAME":"EARTH","LAUNCH_DATE":"2022-07-07","MEAN_ELEMENT_THEORY":"SGP4","FILE":"3546663","CLASSIFICATION_TYPE":"U","INCLINATION":"53.2177","ELEMENT_SET_NO":"999","RCS_SIZE":"MEDIUM","PERIAPSIS":"348.577","EPOCH":"2022-08-24T22:00:00.999936","TLE_LINE1":"1 53036U 22076BC  22236.91667824 -.00001507  00000-0 -63099-5 0  9999","SEMIMAJOR_AXIS":"6727.812","NORAD_CAT_ID":"53036","TIME_SYSTEM":"UTC","REF_FRAME":"TEME","MEAN_MOTION_DDOT":"0.0000000000000","APOAPSIS":"350.778","COUNTRY_CODE":"US","EPHEMERIS_TYPE":"0","OBJECT_TYPE":"PAYLOAD","BSTAR":"-0.00000630990000","REV_AT_EPOCH":"130","OBJECT_NAME":"STARLINK-4155"},{"TIME_SYSTEM":"UTC","TLE_LINE1":"1 53037U 22076BD  22236.91667824 -.00011878  00000-0 -80170-4 0  9990","SEMIMAJOR_AXIS":"6727.776","NORAD_CAT_ID":"53037","RCS_SIZE":"LARGE","PERIAPSIS":"348.354","EPOCH":"2022-08-24T22:00:00.999936","INCLINATION":"53.2158","ELEMENT_SET_NO":"999","BSTAR":"-0.00008017000000","REV_AT_EPOCH":"130","OBJECT_NAME":"STARLINK-4153","EPHEMERIS_TYPE":"0","OBJECT_TYPE":"PAYLOAD","APOAPSIS":"350.927","MEAN_MOTION_DDOT":"0.0000000000000","COUNTRY_CODE":"US","REF_FRAME":"TEME","TLE_LINE2":"2 53037  53.2158 140.1849 0001912  29.1476 320.0200 15.73241961  1303","PERIOD":"91.531","OBJECT_ID":"2022-076BD","ECCENTRICITY":"0.00019120","GP_ID":"210937158","SITE":"AFETR","ARG_OF_PERICENTER":"29.1476","RA_OF_ASC_NODE":"140.1849","MEAN_ANOMALY":"320.0200","FILE":"3546663","CLASSIFICATION_TYPE":"U","MEAN_ELEMENT_THEORY":"SGP4","LAUNCH_DATE":"2022-07-07","MEAN_MOTION_DOT":"-0.00011878","MEAN_MOTION":"15.73241961","DECAY_DATE":null,"CENTER_NAME":"EARTH"},{"FILE":"3546663","CLASSIFICATION_TYPE":"U","LAUNCH_DATE":"2022-07-07","MEAN_ELEMENT_THEORY":"SGP4","MEAN_MOTION_DOT":"-0.00127353","MEAN_MOTION":"15.73295715","DECAY_DATE":null,"CENTER_NAME":"EARTH","TLE_LINE2":"2 53038  53.2176 140.1739 0002146  27.9964 321.9655 15.73295715  1300","PERIOD":"91.528","OBJECT_ID":"2022-076BE","GP_ID":"210937010","ECCENTRICITY":"0.00021460","SITE":"AFETR","ARG_OF_PERICENTER":"27.9964","RA_OF_ASC_NODE":"140.1739","MEAN_ANOMALY":"321.9655","BSTAR":"-0.00091288000000","OBJECT_NAME":"STARLINK-4156","REV_AT_EPOCH":"130","EPHEMERIS_TYPE":"0","OBJECT_TYPE":"PAYLOAD","APOAPSIS":"350.931","MEAN_MOTION_DDOT":"0.0000000000000","COUNTRY_CODE":"US","REF_FRAME":"TEME","TIME_SYSTEM":"UTC","TLE_LINE1":"1 53038U 22076BE  22236.91667824 -.00127353  00000-0 -91288-3 0  9998","SEMIMAJOR_AXIS":"6727.622","NORAD_CAT_ID":"53038","RCS_SIZE":"LARGE","PERIAPSIS":"348.044","EPOCH":"2022-08-24T22:00:00.999936","INCLINATION":"53.2176","ELEMENT_SET_NO":"999"},{"CLASSIFICATION_TYPE":"U","FILE":"3546503","MEAN_MOTION":"15.06840345","MEAN_MOTION_DOT":"-0.01221680","CENTER_NAME":"EARTH","DECAY_DATE":null,"LAUNCH_DATE":"2022-07-11","MEAN_ELEMENT_THEORY":"SGP4","PERIOD":"95.564","TLE_LINE2":"2 53043  97.6555  57.2173 0001809  86.4377 222.9094 15.06840345  6259","OBJECT_ID":"2022-077A","RA_OF_ASC_NODE":"57.2173","MEAN_ANOMALY":"222.9094","SITE":"AFWTR","ECCENTRICITY":"0.00018090","GP_ID":"210907818","ARG_OF_PERICENTER":"86.4377","OBJECT_TYPE":"PAYLOAD","EPHEMERIS_TYPE":"0","BSTAR":"-0.08958500000000","REV_AT_EPOCH":"625","OBJECT_NAME":"STARLINK-4362","REF_FRAME":"TEME","MEAN_MOTION_DDOT":"0.0000000000000","APOAPSIS":"547.117","COUNTRY_CODE":"US","SEMIMAJOR_AXIS":"6923.999","TLE_LINE1":"1 53043U 22077A   22236.91667824 -.01221680  00000-0 -89585-1 0  9999","NORAD_CAT_ID":"53043","TIME_SYSTEM":"UTC","INCLINATION":"97.6555","ELEMENT_SET_NO":"999","RCS_SIZE":"LARGE","EPOCH":"2022-08-24T22:00:00.999936","PERIAPSIS":"544.612"},{"FILE":"3546663","CLASSIFICATION_TYPE":"U","LAUNCH_DATE":"2022-07-11","MEAN_ELEMENT_THEORY":"SGP4","DECAY_DATE":null,"CENTER_NAME":"EARTH","MEAN_MOTION_DOT":"-0.01217669","MEAN_MOTION":"15.08371335","OBJECT_ID":"2022-077B","TLE_LINE2":"2 53044  97.6555  57.2143 0001910  69.2982 237.5307 15.08371335  1301","PERIOD":"95.467","ARG_OF_PERICENTER":"69.2982","GP_ID":"210936451","ECCENTRICITY":"0.00019100","SITE":"AFWTR","MEAN_ANOMALY":"237.5307","RA_OF_ASC_NODE":"57.2143","REV_AT_EPOCH":"130","OBJECT_NAME":"STARLINK-4349","BSTAR":"-0.08561300000000","EPHEMERIS_TYPE":"0","OBJECT_TYPE":"PAYLOAD","COUNTRY_CODE":"US","APOAPSIS":"542.500","MEAN_MOTION_DDOT":"0.0000000000000","REF_FRAME":"TEME","TIME_SYSTEM":"UTC","NORAD_CAT_ID":"53044","TLE_LINE1":"1 53044U 22077B   22236.91667824 -.01217669  00000-0 -85613-1 0  9990","SEMIMAJOR_AXIS":"6919.313","PERIAPSIS":"539.857","EPOCH":"2022-08-24T22:00:00.999936","RCS_SIZE":"LARGE","ELEMENT_SET_NO":"999","INCLINATION":"97.6555"},{"ARG_OF_PERICENTER":"71.1414","SITE":"AFWTR","GP_ID":"210937326","ECCENTRICITY":"0.00018850","RA_OF_ASC_NODE":"57.2128","MEAN_ANOMALY":"239.8573","OBJECT_ID":"2022-077C","PERIOD":"95.464","TLE_LINE2":"2 53045  97.6555  57.2128 0001885  71.1414 239.8573 15.08428180  1309","LAUNCH_DATE":"2022-07-11","MEAN_ELEMENT_THEORY":"SGP4","CENTER_NAME":"EARTH","DECAY_DATE":null,"MEAN_MOTION":"15.08428180","MEAN_MOTION_DOT":"-0.01217784","CLASSIFICATION_TYPE":"U","FILE":"3546663","EPOCH":"2022-08-24T22:00:00.999936","PERIAPSIS":"539.700","RCS_SIZE":"LARGE","ELEMENT_SET_NO":"999","INCLINATION":"97.6555","TIME_SYSTEM":"UTC","NORAD_CAT_ID":"53045","SEMIMAJOR_AXIS":"6919.139","TLE_LINE1":"1 53045U 22077C   22236.91667824 -.01217784  00000-0 -85489-1 0  9990","COUNTRY_CODE":"US","APOAPSIS":"542.309","MEAN_MOTION_DDOT":"0.0000000000000","REF_FRAME":"TEME","REV_AT_EPOCH":"130","OBJECT_NAME":"STARLINK-4350","BSTAR":"-0.08548900000000","OBJECT_TYPE":"PAYLOAD","EPHEMERIS_TYPE":"0"},{"PERIAPSIS":"539.693","EPOCH":"2022-08-24T22:00:00.999936","RCS_SIZE":"LARGE","ELEMENT_SET_NO":"999","INCLINATION":"97.6555","TIME_SYSTEM":"UTC","NORAD_CAT_ID":"53046","TLE_LINE1":"1 53046U 22077D   22236.91667824 -.01217803  00000-0 -85489-1 0  9993","SEMIMAJOR_AXIS":"6919.138","COUNTRY_CODE":"US","APOAPSIS":"542.313","MEAN_MOTION_DDOT":"0.0000000000000","REF_FRAME":"TEME","OBJECT_NAME":"STARLINK-4331","REV_AT_EPOCH":"130","BSTAR":"-0.08548900000000","EPHEMERIS_TYPE":"0","OBJECT_TYPE":"PAYLOAD","ARG_OF_PERICENTER":"70.0206","ECCENTRICITY":"0.00018930","GP_ID":"210936597","SITE":"AFWTR","RA_OF_ASC_NODE":"57.2125","MEAN_ANOMALY":"241.7895","OBJECT_ID":"2022-077D","TLE_LINE2":"2 53046  97.6555  57.2125 0001893  70.0206 241.7895 15.08428739  1302","PERIOD":"95.464","MEAN_ELEMENT_THEORY":"SGP4","LAUNCH_DATE":"2022-07-11","DECAY_DATE":null,"CENTER_NAME":"EARTH","MEAN_MOTION_DOT":"-0.01217803","MEAN_MOTION":"15.08428739","FILE":"3546663","CLASSIFICATION_TYPE":"U"},{"LAUNCH_DATE":"2022-07-11","MEAN_ELEMENT_THEORY":"SGP4","MEAN_MOTION":"15.08555831","MEAN_MOTION_DOT":"-0.01218157","CENTER_NAME":"EARTH","DECAY_DATE":null,"CLASSIFICATION_TYPE":"U","FILE":"3546663","SITE":"AFWTR","GP_ID":"210936719","ECCENTRICITY":"0.00021970","ARG_OF_PERICENTER":"48.9564","MEAN_ANOMALY":"271.9699","RA_OF_ASC_NODE":"57.2127","PERIOD":"95.456","TLE_LINE2":"2 53047  97.6555  57.2127 0002197  48.9564 271.9699 15.08555831  1305","OBJECT_ID":"2022-077E","APOAPSIS":"542.134","MEAN_MOTION_DDOT":"0.0000000000000","COUNTRY_CODE":"US","REF_FRAME":"TEME","BSTAR":"-0.08521400000000","REV_AT_EPOCH":"130","OBJECT_NAME":"STARLINK-4352","OBJECT_TYPE":"PAYLOAD","EPHEMERIS_TYPE":"0","RCS_SIZE":"LARGE","EPOCH":"2022-08-24T22:00:00.999936","PERIAPSIS":"539.094","INCLINATION":"97.6555","ELEMENT_SET_NO":"999","TIME_SYSTEM":"UTC","SEMIMAJOR_AXIS":"6918.749","TLE_LINE1":"1 53047U 22077E   22236.91667824 -.01218157  00000-0 -85214-1 0  9993","NORAD_CAT_ID":"53047"}];
